[{"OBJECT_NAME":"KUIPER-00268","OBJECT_ID":"2026-030AC","EPOCH":"2026-03-05T15:47:02.510016","MEAN_MOTION":15.35825832,"ECCENTRICITY":0.0002511,"INCLINATION":51.8843,"RA_OF_ASC_NODE":238.5524,"ARG_OF_PERICENTER":36.0636,"MEAN_ANOMALY":324.0519,"EPHEMERIS_TYPE":0,"CLASSIFICATION_TYPE":"U","NORAD_CAT_ID":67790,"ELEMENT_SET_NO":999,"REV_AT_EPOCH":447,"BSTAR":0.00089226,"MEAN_MOTION_DOT":0.0003133,"MEAN_MOTION_DDOT":0},{"OBJECT_NAME":"KUIPER-00270","OBJECT_ID":"2026-030AD","EPOCH":"2026-03-05T17:48:23.346432","MEAN_MOTION":15.34476159,"ECCENTRICITY":0.0010162,"INCLINATION":51.8813,"RA_OF_ASC_NODE":238.3532,"ARG_OF_PERICENTER":45.647,"MEAN_ANOMALY":314.5347,"EPHEMERIS_TYPE":0,"CLASSIFICATION_TYPE":"U","NORAD_CAT_ID":67791,"ELEMENT_SET_NO":999,"REV_AT_EPOCH":448,"BSTAR":0.00072461,"MEAN_MOTION_DOT":0.000243,"MEAN_MOTION_DDOT":0},{"OBJECT_NAME":"KUIPER-00274","OBJECT_ID":"2026-030AE","EPOCH":"2026-03-05T16:53:05.716896","MEAN_MOTION":15.31086175,"ECCENTRICITY":0.0017974,"INCLINATION":51.8815,"RA_OF_ASC_NODE":238.8431,"ARG_OF_PERICENTER":60.7494,"MEAN_ANOMALY":299.5284,"EPHEMERIS_TYPE":0,"CLASSIFICATION_TYPE":"U","NORAD_CAT_ID":67792,"ELEMENT_SET_NO":999,"REV_AT_EPOCH":447,"BSTAR":-0.0016099,"MEAN_MOTION_DOT":-0.00049366,"MEAN_MOTION_DDOT":0},{"OBJECT_NAME":"KUIPER-00275","OBJECT_ID":"2026-030AF","EPOCH":"2026-03-05T17:44:36.023712","MEAN_MOTION":15.34549227,"ECCENTRICITY":0.0008975,"INCLINATION":51.8845,"RA_OF_ASC_NODE":238.3451,"ARG_OF_PERICENTER":42.6068,"MEAN_ANOMALY":317.5612,"EPHEMERIS_TYPE":0,"CLASSIFICATION_TYPE":"U","NORAD_CAT_ID":67793,"ELEMENT_SET_NO":999,"REV_AT_EPOCH":448,"BSTAR":0.00070472,"MEAN_MOTION_DOT":0.00023668,"MEAN_MOTION_DDOT":0},{"OBJECT_NAME":"KUIPER-00276","OBJECT_ID":"2026-030AG","EPOCH":"2026-03-05T16:58:43.578912","MEAN_MOTION":15.31293588,"ECCENTRICITY":0.0019075,"INCLINATION":51.8812,"RA_OF_ASC_NODE":238.8668,"ARG_OF_PERICENTER":54.5943,"MEAN_ANOMALY":305.682,"EPHEMERIS_TYPE":0,"CLASSIFICATION_TYPE":"U","NORAD_CAT_ID":67794,"ELEMENT_SET_NO":999,"REV_AT_EPOCH":447,"BSTAR":-0.001133,"MEAN_MOTION_DOT":-0.00035166,"MEAN_MOTION_DDOT":0},{"OBJECT_NAME":"KUIPER-00279","OBJECT_ID":"2026-030AH","EPOCH":"2026-03-05T17:34:37.911936","MEAN_MOTION":15.35235109,"ECCENTRICITY":0.0006545,"INCLINATION":51.8805,"RA_OF_ASC_NODE":238.2905,"ARG_OF_PERICENTER":36.0821,"MEAN_ANOMALY":324.0606,"EPHEMERIS_TYPE":0,"CLASSIFICATION_TYPE":"U","NORAD_CAT_ID":67795,"ELEMENT_SET_NO":999,"REV_AT_EPOCH":448,"BSTAR":0.00093747,"MEAN_MOTION_DOT":0.00032335,"MEAN_MOTION_DDOT":0}]
